USA 167                 
1 27691U 03008A   26197.17448942 -.00000010  00000+0  00000+0 0  9990
2 27691  11.0174  43.1450 0003424 310.9705 240.9494  1.00270240  7067
USA 169 (MILSTAR-2 4)   
1 27711U 03012A   26197.37123726 -.00000211  00000+0  00000+0 0  9993
2 27711  12.3927  29.6006 0099392  10.2756 180.1259  1.00273168 33246
ASIASAT 4               
1 27718U 03014A   26197.51268093 -.00000235  00000+0  00000+0 0  9991
2 27718   4.7762  75.3759 0002860  39.1719 151.9072  1.00272426 45597
HELLAS-SAT 2            
1 27811U 03020A   26197.41048569 -.00000098  00000+0  00000+0 0  9992
2 27811   7.4253  67.5310 0003683  81.9272 282.5243  1.00271511 43149
THURAYA-2               
1 27825U 03026A   26197.20732051  .00000112  00000+0  00000+0 0  9992
2 27825   8.8823  31.8383 0002546  26.2258 354.6210  1.00271566 84644
OPTUS C1                
1 27831U 03028B   26197.63798242 -.00000166  00000+0  00000+0 0  9992
2 27831   6.9614  69.0492 0005271  42.5419 208.2290  1.00269137 53357
USA 170                 
1 27875U 03040A   26197.20350715  .00000112  00000+0  00000+0 0  9996
2 27875  10.5603  47.6689 0001789  77.7976 266.0908  1.00275274 33289
GALAXY 13 (HORIZONS-1)  
1 27954U 03044A   26197.59663661  .00000121  00000+0  00000+0 0  9997
2 27954   1.4926  83.4858 0002129  32.5433 243.1689  1.00271913 46862
YAMAL 202               
1 28089U 03053A   26197.48030896 -.00000094  00000+0  00000+0 0  9993
2 28089   6.4139  70.5803 0003177  44.0432 156.1374  1.00271883 82995
UFO 11 (USA 174)        
1 28117U 03057A   26197.03288988 -.00000117  00000+0  00000+0 0  9993
2 28117   8.9599  33.6804 0002696  96.8891 250.7089  1.00270218 82731
USA 176 (DSP 22)        
1 28158U 04004A   26197.40268565 -.00000310  00000+0  00000+0 0  9996
2 28158  12.1014  25.8509 0001159 296.8763  67.0030  1.00265419 33236
ABS-4 (MOBISAT-1)       
1 28184U 04007A   26197.21070052  .00000025  00000+0  00000+0 0  9991
2 28184   6.1120  71.6509 0004580  45.8618 313.3452  1.00273662 52625
INTELSAT 10-02          
1 28358U 04022A   26197.55489065 -.00000022  00000+0  00000+0 0  9994
2 28358   0.0555 253.3667 0000365 350.4485 249.3254  1.00272039 80852
ANIK F2                 
1 28378U 04027A   26197.60434998 -.00000062  00000+0  00000+0 0  9996
2 28378   3.3619  79.0507 0003569  32.8234 288.9939  1.00271300 41552
AMC-15                  
1 28446U 04041A   26197.60556332 -.00000099  00000+0  00000+0 0  9995
2 28446   0.0362 298.3695 0002178 173.1593 295.8547  1.00271042 79593
NSS-10                  
1 28526U 05003A   26197.61458333 -.00000265  00000+0  00000+0 0  9991
2 28526   6.5217  70.0928 0002711  39.6281   8.5111  1.00272639 53455
INMARSAT 4-F1           
1 28628U 05009A   26197.37643727  .00000020  00000+0  00000+0 0  9994
2 28628   5.2078  42.7904 0002575  72.6344 132.3924  1.00271309 77967
DIRECTV 8               
1 28659U 05019A   26197.60278998  .00000000  00000+0  00000+0 0  9997
2 28659   0.0210  62.2750 0003050  59.6305 270.4859  1.00270556 77367
GALAXY 28 (G-28)        
1 28702U 05022A   26197.47842156 -.00000213  00000+0  00000+0 0  9995
2 28702   3.3713  78.5710 0002517  29.3186 331.5558  1.00271714 52279
THAICOM 4               
1 28786U 05028A   26197.57867696 -.00000373  00000+0  00000+0 0  9997
2 28786   0.3194  85.5077 0001481   8.4007 168.3120  1.00271365 52547
ANIK F1R                
1 28868U 05036A   26197.60512999 -.00000088  00000+0  00000+0 0  9997
2 28868   4.3861  76.2120 0003875  18.8510 309.9045  1.00271541 46742
SYRACUSE 3A             
1 28885U 05041B   26197.20792718  .00000116  00000+0  00000+0 0  9998
2 28885   4.7133  75.4809 0002689  36.8486 303.2261  1.00274576 76039
INMARSAT 4-F2           
1 28899U 05044A   26197.51216093 -.00000273  00000+0  00000+0 0  9992
2 28899   5.1333  43.6642 0002766  63.2398 155.3051  1.00270585 75819
METEOSAT-9 (MSG-2)      
1 28912U 05049B   26197.62531973  .00000110  00000+0  00000+0 0  9991
2 28912   9.4264  53.8734 0002257 356.5374 154.8210  1.00272776  7299
EUTELSAT 174A           
1 28924U 05052A   26197.51823046 -.00000004  00000+0  00000+0 0  9994
2 28924   4.2911  76.1630 0005883  40.3325 178.3577  1.00271534 52624
ECHOSTAR 10             
1 28935U 06003A   26197.41572307 -.00000066  00000+0  00000+0 0  9991
2 28935   0.0524 283.7863 0001150 188.8427 221.0836  1.00270582 74752
SPAINSAT                
1 28945U 06007A   26197.26705513 -.00000228  00000+0  00000+0 0  9996
2 28945   0.6367  86.0423 0004680  28.5314 245.4544  1.00269220 74502
JCSAT-5A                
1 29045U 06010A   26197.58120987 -.00000339  00000+0  00000+0 0  9996
2 29045   1.1835  83.8855 0001732  22.7482 169.0491  1.00272067 74067
ASTRA 1KR               
1 29055U 06012A   26197.55879066  .00000108  00000+0  00000+0 0  9998
2 29055   0.5478  83.1749 0003343  24.3492  47.0146  1.00271126 45995
GALAXY 16 (G-16)        
1 29236U 06023A   26197.53547721 -.00000137  00000+0  00000+0 0  9992
2 29236   0.0251 156.8860 0002544 316.3968 274.8420  1.00271522 73262
EUTELSAT 33F            
1 29270U 06032A   26197.56165067  .00000144  00000+0  00000+0 0  9999
2 29270   1.7357  81.9131 0003458  30.0305  57.7028  1.00272575 47604
JCSAT-3A                
1 29272U 06033A   26197.50912758 -.00000355  00000+0  00000+0 0  9998
2 29272   0.0455 257.9524 0002136 219.7366 127.9358  1.00272384 48035
