OBJECT_NAME,OBJECT_ID,EPOCH,MEAN_MOTION,ECCENTRICITY,INCLINATION,RA_OF_ASC_NODE,ARG_OF_PERICENTER,MEAN_ANOMALY,EPHEMERIS_TYPE,CLASSIFICATION_TYPE,NORAD_CAT_ID,ELEMENT_SET_NO,REV_AT_EPOCH,BSTAR,MEAN_MOTION_DOT,MEAN_MOTION_DDOT
USA 167,2003-008A,2026-07-16T04:11:15.885888,1.00270240,.00034247,11.0174,43.1450,310.9705,240.9494,0,U,27691,999,706,0,-.1E-6,0
USA 169 (MILSTAR-2 4),2003-012A,2026-07-16T08:54:34.899264,1.00273168,.0099392,12.3927,29.6006,10.2756,180.1259,0,U,27711,999,3324,0,-.211E-5,0
ASIASAT 4,2003-014A,2026-07-16T12:18:15.632352,1.00272426,.00028605,4.7762,75.3759,39.1719,151.9072,0,U,27718,999,4559,0,-.235E-5,0
HELLAS-SAT 2,2003-020A,2026-07-16T09:51:05.963616,1.00271511,.00036838,7.4253,67.5310,81.9272,282.5243,0,U,27811,999,4314,0,-.98E-6,0
THURAYA-2,2003-026A,2026-07-16T04:58:32.492064,1.00271566,.00025463,8.8823,31.8383,26.2258,354.6210,0,U,27825,999,8464,0,.112E-5,0
OPTUS C1,2003-028B,2026-07-16T15:18:41.681088,1.00269137,.00052712,6.9614,69.0492,42.5419,208.2290,0,U,27831,999,5335,0,-.166E-5,0
USA 170,2003-040A,2026-07-16T04:53:03.017760,1.00275274,.00017898,10.5603,47.6689,77.7976,266.0908,0,U,27875,999,3328,0,.112E-5,0
GALAXY 13 (HORIZONS-1),2003-044A,2026-07-16T14:19:09.403104,1.00271913,.0002129,1.4926,83.4858,32.5433,243.1689,0,U,27954,999,4686,0,.121E-5,0
YAMAL 202,2003-053A,2026-07-16T11:31:38.694144,1.00271883,.00031778,6.4139,70.5803,44.0432,156.1374,0,U,28089,999,8299,0,-.94E-6,0
UFO 11 (USA 174),2003-057A,2026-07-16T00:47:21.685632,1.00270218,.0002696,8.9599,33.6804,96.8891,250.7089,0,U,28117,999,8273,0,-.117E-5,0
USA 176 (DSP 22),2004-004A,2026-07-16T09:39:52.040160,1.00265419,.00011598,12.1014,25.8509,296.8763,67.0030,0,U,28158,999,3323,0,-.31E-5,0
ABS-4 (MOBISAT-1),2004-007A,2026-07-16T05:03:24.524928,1.00273662,.000458,6.1120,71.6509,45.8618,313.3452,0,U,28184,999,5262,0,.25E-6,0
INTELSAT 10-02,2004-022A,2026-07-16T13:19:02.552160,1.00272039,.0000365,0.0555,253.3667,350.4485,249.3254,0,U,28358,999,8085,0,-.22E-6,0
ANIK F2,2004-027A,2026-07-16T14:30:15.838272,1.00271300,.00035699,3.3619,79.0507,32.8234,288.9939,0,U,28378,999,4155,0,-.62E-6,0
AMC-15,2004-041A,2026-07-16T14:32:00.670848,1.00271042,.00021782,0.0362,298.3695,173.1593,295.8547,0,U,28446,999,7959,0,-.99E-6,0
NSS-10,2005-003A,2026-07-16T14:44:59.999712,1.00272639,.00027119,6.5217,70.0928,39.6281,8.5111,0,U,28526,999,5345,0,-.265E-5,0
INMARSAT 4-F1,2005-009A,2026-07-16T09:02:04.180128,1.00271309,.00025753,5.2078,42.7904,72.6344,132.3924,0,U,28628,999,7796,0,.2E-6,0
DIRECTV 8,2005-019A,2026-07-16T14:28:01.054272,1.00270556,.00030506,0.0210,62.2750,59.6305,270.4859,0,U,28659,999,7736,0,0,0
GALAXY 28 (G-28),2005-022A,2026-07-16T11:28:55.622784,1.00271714,.00025175,3.3713,78.5710,29.3186,331.5558,0,U,28702,999,5227,0,-.213E-5,0
THAICOM 4,2005-028A,2026-07-16T13:53:17.689344,1.00271365,.00014819,0.3194,85.5077,8.4007,168.3120,0,U,28786,999,5254,0,-.373E-5,0
ANIK F1R,2005-036A,2026-07-16T14:31:23.231136,1.00271541,.00038751,4.3861,76.2120,18.8510,309.9045,0,U,28868,999,4674,0,-.88E-6,0
SYRACUSE 3A,2005-041B,2026-07-16T04:59:24.908352,1.00274576,.00026894,4.7133,75.4809,36.8486,303.2261,0,U,28885,999,7603,0,.116E-5,0
INMARSAT 4-F2,2005-044A,2026-07-16T12:17:30.704352,1.00270585,.00027667,5.1333,43.6642,63.2398,155.3051,0,U,28899,999,7581,0,-.273E-5,0
METEOSAT-9 (MSG-2),2005-049B,2026-07-16T15:00:27.624672,1.00272776,.00022573,9.4264,53.8734,356.5374,154.8210,0,U,28912,999,729,0,.11E-5,0
EUTELSAT 174A,2005-052A,2026-07-16T12:26:15.111744,1.00271534,.00058838,4.2911,76.1630,40.3325,178.3577,0,U,28924,999,5262,0,-.4E-7,0
ECHOSTAR 10,2006-003A,2026-07-16T09:58:38.473248,1.00270582,.00011508,0.0524,283.7863,188.8427,221.0836,0,U,28935,999,7475,0,-.66E-6,0
SPAINSAT,2006-007A,2026-07-16T06:24:33.563232,1.00269220,.00046803,0.6367,86.0423,28.5314,245.4544,0,U,28945,999,7450,0,-.228E-5,0
JCSAT-5A,2006-010A,2026-07-16T13:56:56.532768,1.00272067,.00017323,1.1835,83.8855,22.7482,169.0491,0,U,29045,999,7406,0,-.339E-5,0
ASTRA 1KR,2006-012A,2026-07-16T13:24:39.513024,1.00271126,.00033436,0.5478,83.1749,24.3492,47.0146,0,U,29055,999,4599,0,.108E-5,0
GALAXY 16 (G-16),2006-023A,2026-07-16T12:51:05.230944,1.00271522,.00025448,0.0251,156.8860,316.3968,274.8420,0,U,29236,999,7326,0,-.137E-5,0
EUTELSAT 33F,2006-032A,2026-07-16T13:28:46.617888,1.00272575,.00034583,1.7357,81.9131,30.0305,57.7028,0,U,29270,999,4760,0,.144E-5,0
JCSAT-3A,2006-033A,2026-07-16T12:13:08.622912,1.00272384,.00021364,0.0455,257.9524,219.7366,127.9358,0,U,29272,999,4803,0,-.355E-5,0
